{"version": 0.6, "generator": "Overpass API 0.7.56.9 76e5016d", "osm3s": {"timestamp_osm_base": "2021-06-17T09:27:12Z", "copyright": "The data included in this document is from www.openstreetmap.org. The data is made available under ODbL."}, "elements": [{"type": "node", "id": 293651582, "lat": 53.3944566, "lon": -2.8922661, "tags": {"amenity": "cafe", "created_by": "Potlatch 0.10b", "name": "Simply Coffee"}}, {"type": "node", "id": 293653376, "lat": 53.3905974, "lon": -2.8994072, "tags": {"amenity": "cafe", "created_by": "Potlatch 0.10b", "name": "Neighbourhood"}}, {"type": "node", "id": 299317178, "lat": 53.3934347, "lon": -2.9781396, "tags": {"amenity": "cafe", "cuisine": "coffee_shop", "internet_access": "yes", "name": "Ryde", "note": "The Robert Cain Brewery", "website": "http://www.rydeliverpool.co.uk/"}}, {"type": "node", "id": 348092277, "lat": 53.4039324, "lon": -2.9775443, "tags": {"addr:city": "Liverpool", "addr:floor": "Second Floor", "addr:housenumber": "16", "addr:postcode": "L1 4ED", "addr:street": "Newington", "alt_name": "Egg Cafe", "amenity": "cafe", "diet:vegan": "yes", "diet:vegetarian": "only", "fhrs:id": "1137221", "fhrs:local_authority_id": "PI/000274617", "happycow:id": "792", "level": "2", "name": "The Egg Cafe"}}, {"type": "node", "id": 348177688, "lat": 53.4052224, "lon": -2.9878444}, {"type": "node", "id": 371206486, "lat": 53.4021095, "lon": -2.9777452, "tags": {"amenity": "cafe", "diet:vegetarian": "yes", "internet_access": "wlan", "name": "Caf\u00e9 at FACT", "wheelchair": "yes"}}, {"type": "node", "id": 457479137, "lat": 53.3516751, "lon": -2.8789276, "tags": {"amenity": "cafe", "brand": "Costa", "brand:wikidata": "Q608845", "brand:wikipedia": "en:Costa Coffee", "cuisine": "coffee_shop", "name": "Costa", "takeaway": "yes"}}, {"type": "node", "id": 459156040, "lat": 53.3518237, "lon": -2.8804382, "tags": {"amenity": "cafe", "name": "Marks & Spencers Cafe"}}, {"type": "node", "id": 512529078, "lat": 53.4132954, "lon": -2.9130855, "tags": {"addr:city": "Liverpool", "addr:housenumber": "598", "addr:postcode": "L13 5XE", "addr:street": "Prescot Road", "amenity": "cafe", "cuisine": "coffee_shop", "name": "Costa Coffee", "opening_hours": "Mo-Sa 07:30-19:00, Su 08:00-19:00"}}, {"type": "node", "id": 551871019, "lat": 53.4073905, "lon": -2.9788512, "tags": {"amenity": "cafe", "name": "Caff\u00e8 Nero Express", "wheelchair": "yes"}}, {"type": "node", "id": 567423748, "lat": 53.4008312, "lon": -2.9665354, "tags": {"amenity": "cafe", "cuisine": "arab", "name": "Kimos"}}, {"type": "node", "id": 673387945, "lat": 53.3851889, "lon": -2.9072906, "tags": {"addr:street": "Allerton road", "amenity": "cafe", "brand": "Costa", "brand:wikidata": "Q608845", "brand:wikipedia": "en:Costa Coffee", "cuisine": "coffee_shop", "name": "Costa", "takeaway": "yes"}}, {"type": "node", "id": 673388214, "lat": 53.3853681, "lon": -2.9074435, "tags": {"addr:street": "Allerton road", "amenity": "cafe", "name": "The Corner Room Cafe & Bar"}}, {"type": "node", "id": 681268201, "lat": 53.4080286, "lon": -2.9782853, "tags": {"addr:place": "Liverpool Lime Street", "addr:postcode": "L1 1JD", "amenity": "cafe", "brand": "Costa", "brand:wikidata": "Q608845", "brand:wikipedia": "en:Costa Coffee", "cuisine": "coffee_shop", "fhrs:id": "496746", "name": "Costa", "source:addr": "FHRS Open Data", "takeaway": "yes"}}, {"type": "node", "id": 681278221, "lat": 53.4045331, "lon": -2.9970319, "tags": {"amenity": "cafe", "cuisine": "traditional", "name": "The Fab4 Cafe", "website": "https://www.beatlesstory.com/fab4-cafe/"}}, {"type": "node", "id": 824750897, "lat": 53.4057997, "lon": -2.9839825}, {"type": "node", "id": 999599050, "lat": 53.4012078, "lon": -2.9644337, "tags": {"amenity": "cafe"}}, {"type": "node", "id": 999599053, "lat": 53.4014701, "lon": -2.962878, "tags": {"amenity": "cafe"}}, {"type": "node", "id": 999599055, "lat": 53.402815, "lon": -2.9659652, "tags": {"amenity": "cafe", "name": "No 5 Cafe"}}, {"type": "node", "id": 999599065, "lat": 53.4024965, "lon": -2.9639774, "tags": {"amenity": "cafe", "name": "Library Cafe"}}, {"type": "node", "id": 999599070, "lat": 53.4018875, "lon": -2.964372, "tags": {"amenity": "cafe"}}, {"type": "node", "id": 1036366194, "lat": 53.3943372, "lon": -2.9791483, "tags": {"addr:city": "Liverpool", "addr:housenumber": "25", "addr:postcode": "L8 5RN", "addr:street": "Parliament Street", "amenity": "cafe", "internet_access": "yes", "name": "Baltic Social Cafe Bar", "phone": "+44 151 7071137", "website": "http://thebalticsocial.com", "wheelchair": "no"}}, {"type": "node", "id": 1339580414, "lat": 53.4039125, "lon": -2.9723482, "tags": {"amenity": "cafe", "name": "Cuthbert's", "website": "https://www.cuthbertsbakehouse.co.uk/"}}, {"type": "node", "id": 1339584963, "lat": 53.3759262, "lon": -2.9366802}, {"type": "node", "id": 1339584974, "lat": 53.3759822, "lon": -2.9366211}, {"type": "node", "id": 1339584976, "lat": 53.375979, "lon": -2.9368223}, {"type": "node", "id": 1339584977, "lat": 53.376043, "lon": -2.9367606}, {"type": "node", "id": 1524481296, "lat": 53.3815996, "lon": -2.8943903, "tags": {"amenity": "cafe"}}, {"type": "node", "id": 1563152875, "lat": 53.4107951, "lon": -2.9087835, "tags": {"addr:street": "Broad Green Road", "amenity": "cafe"}}, {"type": "node", "id": 1669238249, "lat": 53.4037991, "lon": -2.9687406, "tags": {"amenity": "cafe", "name": "Piazza Caf\u00e9", "wheelchair": "yes"}}, {"type": "node", "id": 1777935609, "lat": 53.4040698, "lon": -2.9858011, "tags": {"addr:housenumber": "104a", "addr:postcode": "L1 3EU", "addr:street": "Paradise Street", "amenity": "cafe", "brand": "Starbucks", "brand:wikidata": "Q37158", "brand:wikipedia": "en:Starbucks", "cuisine": "coffee_shop", "internet_access": "wlan", "internet_access:fee": "no", "name": "Starbucks", "official_name": "Starbucks Coffee", "source": "Survey", "takeaway": "yes", "website": "https://www.starbucks.co.uk/store-locator?place=Liverpool+ONE&latLng=53.404440000000015%2C-2.9855499999999946&zoom=15&store=28409-250699&storeDetail=28409-250699"}}, {"type": "node", "id": 1950682909, "lat": 53.4008545, "lon": -2.9677521, "tags": {"amenity": "cafe", "brand": "Caff\u00e8 Nero", "brand:wikidata": "Q675808", "brand:wikipedia": "en:Caff\u00e8 Nero", "cuisine": "coffee_shop", "name": "Caff\u00e8 Nero", "takeaway": "yes"}}, {"type": "node", "id": 2018642230, "lat": 53.3815603, "lon": -2.9451211, "tags": {"amenity": "cafe", "diet:vegetarian": "only", "name": "Moon and Pea"}}, {"type": "node", "id": 2042727773, "lat": 53.3902011, "lon": -2.9167216, "tags": {"amenity": "cafe", "brand": "Costa", "brand:wikidata": "Q608845", "brand:wikipedia": "en:Costa Coffee", "cuisine": "coffee_shop", "name": "Costa", "takeaway": "yes"}}, {"type": "node", "id": 2188552573, "lat": 53.4052336, "lon": -2.9879324}, {"type": "node", "id": 2188552584, "lat": 53.4052207, "lon": -2.9879672}, {"type": "node", "id": 2188552593, "lat": 53.4050833, "lon": -2.9879562}, {"type": "node", "id": 2188552607, "lat": 53.4050033, "lon": -2.9879053}, {"type": "node", "id": 2188552609, "lat": 53.4051678, "lon": -2.9879835}, {"type": "node", "id": 2188552610, "lat": 53.4051916, "lon": -2.9879862}, {"type": "node", "id": 2188552613, "lat": 53.4052367, "lon": -2.9878866}, {"type": "node", "id": 2264896525, "lat": 53.4041021, "lon": -2.9840385, "tags": {"amenity": "cafe", "name": "Espresso", "toilets": "yes", "toilets:wheelchair": "yes", "wheelchair": "yes"}}, {"type": "node", "id": 2265042268, "lat": 53.3953274, "lon": -2.980146, "tags": {"addr:city": "Liverpool", "addr:housename": "Baltic Creative CIC", "addr:housenumber": "49", "addr:postcode": "L1 0AH", "addr:street": "Jamaica Street", "amenity": "cafe", "cuisine": "sandwich", "name": "The Baltic Roastery", "website": "https://www.92degreescoffee.com/", "wheelchair": "yes"}}, {"type": "node", "id": 2265097931, "lat": 53.404252, "lon": -2.9869428, "tags": {"amenity": "cafe", "brand": "Costa", "brand:wikidata": "Q608845", "brand:wikipedia": "en:Costa Coffee", "cuisine": "coffee_shop", "level": "2", "name": "Costa", "note": "Costa inside Odeon entrance lobby", "takeaway": "yes"}}, {"type": "node", "id": 2308757874, "lat": 53.4060262, "lon": -2.9839132}, {"type": "node", "id": 2308757880, "lat": 53.4060706, "lon": -2.9842477}, {"type": "node", "id": 2308757886, "lat": 53.4058387, "lon": -2.984315}, {"type": "node", "id": 2308757898, "lat": 53.4061123, "lon": -2.9842323}, {"type": "node", "id": 2308757909, "lat": 53.4057123, "lon": -2.9840113}, {"type": "node", "id": 2308757912, "lat": 53.4060684, "lon": -2.9838988}, {"type": "node", "id": 2308757924, "lat": 53.4057514, "lon": -2.9843438}, {"type": "node", "id": 2308773503, "lat": 53.4050009, "lon": -2.987825}, {"type": "node", "id": 2625334278, "lat": 53.399377, "lon": -2.9918786, "tags": {"amenity": "cafe", "brand": "Costa", "brand:wikidata": "Q608845", "brand:wikipedia": "en:Costa Coffee", "cuisine": "coffee_shop", "name": "Costa", "takeaway": "yes"}}, {"type": "node", "id": 2627588867, "lat": 53.3581436, "lon": -2.8674613, "tags": {"amenity": "cafe", "name": "Reno's Cafe"}}, {"type": "node", "id": 2627588868, "lat": 53.3576256, "lon": -2.8678073, "tags": {"addr:city": "Liverpool", "addr:country": "GB", "addr:housename": "Hunts Cross Shopping Park", "addr:postcode": "L24 9WA", "amenity": "cafe", "brand": "Asda", "brand:wikidata": "Q297410", "brand:wikipedia": "en:Asda", "contact:phone": "+44 151 728 4600", "contact:website": "https://storelocator.asda.com/north-west/liverpool/hunts-cross-shopping-centre/cafe", "drinking_water:refill": "yes", "drinking_water:refill:network": "Refill", "fhrs:id": "802650", "internet_access": "wlan", "internet_access:fee": "no", "name": "Asda Cafe", "opening_hours:covid19": "Mo-Su off", "operator": "Asda Stores Ltd"}}, {"type": "node", "id": 2646320021, "lat": 53.4058135, "lon": -2.9671039, "tags": {"amenity": "cafe", "brand": "Costa", "brand:wikidata": "Q608845", "brand:wikipedia": "en:Costa Coffee", "cuisine": "coffee_shop", "name": "Costa", "operator": "Optimum Coffee", "takeaway": "yes"}}, {"type": "node", "id": 2744443560, "lat": 53.3997167, "lon": -2.9850858}, {"type": "node", "id": 2744443563, "lat": 53.3996578, "lon": -2.9851846}, {"type": "node", "id": 2744443580, "lat": 53.3996086, "lon": -2.9849046}, {"type": "node", "id": 2744443626, "lat": 53.3995497, "lon": -2.9850034}, {"type": "node", "id": 2744443628, "lat": 53.3995909, "lon": -2.9850725}, {"type": "node", "id": 2803537075, "lat": 53.4024562, "lon": -2.9767822, "tags": {"addr:housenumber": "89", "addr:street": "Bold Street", "amenity": "cafe", "cuisine": "coffee_shop", "internet_access": "wlan", "name": "Bold Street Coffee", "opening_hours": "Mo-Fr 07:30-18:00; Sa 08:00-18:00; Su 09:30-17:00", "smoking": "outside", "website": "http://www.boldstreetcoffee.co.uk", "wheelchair": "yes"}}, {"type": "node", "id": 3014030560, "lat": 53.3975353, "lon": -2.9728385, "tags": {"amenity": "cafe", "name": "Mezzanine Caf\u00e9 Bar", "source": "survey"}}, {"type": "node", "id": 3077238841, "lat": 53.405654, "lon": -2.9808532, "tags": {"amenity": "cafe", "brand": "Costa", "brand:wikidata": "Q608845", "brand:wikipedia": "en:Costa Coffee", "cuisine": "coffee_shop", "name": "Costa", "takeaway": "yes"}}, {"type": "node", "id": 3512319596, "lat": 53.3968102, "lon": -2.9819973, "tags": {"addr:city": "Liverpool", "addr:housenumber": "46", "addr:postcode": "L1 0AY", "addr:street": "Bridgewater Street", "amenity": "cafe", "cuisine": "sandwich", "internet_access": "no", "name": "Baltic Bakehouse", "opening_hours": "Tu-Fr 08:30-17:30; Sa-Su 10:00-16:00", "smoking": "outside", "toilets:wheelchair": "no", "wheelchair": "yes"}}, {"type": "node", "id": 3512375195, "lat": 53.408179, "lon": -2.9924486, "tags": {"addr:city": "Liverpool", "addr:housenumber": "1A", "addr:postcode": "L2 2NZ", "addr:street": "Tithebarn Street", "amenity": "cafe", "brand": "Costa", "brand:wikidata": "Q608845", "brand:wikipedia": "en:Costa Coffee", "cuisine": "coffee_shop", "name": "Costa", "smoking": "no", "takeaway": "yes"}}, {"type": "node", "id": 3512375197, "lat": 53.4074291, "lon": -2.9923767, "tags": {"addr:city": "Liverpool", "addr:postcode": "L2 3YL", "amenity": "cafe", "cuisine": "coffee_shop", "name": "Esquires Coffee", "opening_hours": "Mo-Fr 07:00-17:00; Su 09:00-17:00", "phone": "+44 151 236 5266"}}, {"type": "node", "id": 3615169895, "lat": 53.3782641, "lon": -2.9482105}, {"type": "node", "id": 3615169903, "lat": 53.3782907, "lon": -2.9482805}, {"type": "node", "id": 3615169947, "lat": 53.3784052, "lon": -2.9480601}, {"type": "node", "id": 3615169956, "lat": 53.3784318, "lon": -2.9481301}, {"type": "node", "id": 3914615863, "lat": 53.4007818, "lon": -2.9914095, "tags": {"amenity": "cafe", "cuisine": "coffee_shop", "internet_access": "wlan", "name": "Teddy's"}}, {"type": "node", "id": 3921154049, "lat": 53.4090182, "lon": -2.993595, "tags": {"addr:city": "Liverpool", "addr:housename": "Cotton Exchange", "addr:postcode": "L3 9LQ", "addr:street": "Old Hall Street", "amenity": "cafe", "brand": "Starbucks", "brand:wikidata": "Q37158", "brand:wikipedia": "en:Starbucks", "cuisine": "coffee_shop", "fhrs:id": "817802", "internet_access": "yes", "name": "Starbucks", "official_name": "Starbucks Coffee", "opening_hours": "Mo-Fr 06:30-17:30, Sa 07:00-15:00, Su 09:00-14:00", "takeaway": "yes"}}, {"type": "node", "id": 3960629823, "lat": 53.3834789, "lon": -2.9394055}, {"type": "node", "id": 3960629824, "lat": 53.3834905, "lon": -2.9393041}, {"type": "node", "id": 3960629825, "lat": 53.3835177, "lon": -2.9392931}, {"type": "node", "id": 3960629826, "lat": 53.3835157, "lon": -2.9392644}, {"type": "node", "id": 3960629827, "lat": 53.383553, "lon": -2.9392509}, {"type": "node", "id": 3960629828, "lat": 53.3835233, "lon": -2.9390076}, {"type": "node", "id": 3960629829, "lat": 53.3835001, "lon": -2.9390143}, {"type": "node", "id": 3960629830, "lat": 53.3834956, "lon": -2.9389603}, {"type": "node", "id": 3960629831, "lat": 53.3834502, "lon": -2.9388665}, {"type": "node", "id": 3960629832, "lat": 53.3833459, "lon": -2.9390008}, {"type": "node", "id": 3960629833, "lat": 53.3833766, "lon": -2.9390693}, {"type": "node", "id": 3960629834, "lat": 53.3833923, "lon": -2.9390642}, {"type": "node", "id": 3960629835, "lat": 53.3834205, "lon": -2.9392906}, {"type": "node", "id": 3960629836, "lat": 53.3834049, "lon": -2.9392965}, {"type": "node", "id": 3960629837, "lat": 53.3833943, "lon": -2.9393709}, {"type": "node", "id": 3964649983, "lat": 53.4062125, "lon": -2.9661994, "tags": {"amenity": "cafe"}}, {"type": "node", "id": 4112993347, "lat": 53.4081592, "lon": -2.9803978, "tags": {"amenity": "cafe", "note": "Inside St George's Hall"}}, {"type": "node", "id": 4314101470, "lat": 53.4015489, "lon": -2.9695395, "tags": {"amenity": "cafe", "brand": "Starbucks", "brand:wikidata": "Q37158", "brand:wikipedia": "en:Starbucks", "cuisine": "coffee_shop", "name": "Starbucks", "official_name": "Starbucks Coffee", "takeaway": "yes"}}, {"type": "node", "id": 4339439298, "lat": 53.4042129, "lon": -2.9803622, "tags": {"addr:city": "Liverpool", "addr:housenumber": "1A", "addr:postcode": "L1 4DJ", "addr:street": "Bold Street", "amenity": "cafe", "brand": "Caff\u00e8 Nero", "brand:wikidata": "Q675808", "brand:wikipedia": "en:Caff\u00e8 Nero", "cuisine": "coffee_shop", "fhrs:id": "496123", "fhrs:local_authority_id": "PI/000020096", "name": "Caff\u00e8 Nero", "takeaway": "yes"}}, {"type": "node", "id": 4339439306, "lat": 53.4019686, "lon": -2.9725836, "tags": {"amenity": "cafe", "name": "Hard Wok Cafe"}}, {"type": "node", "id": 4339439498, "lat": 53.4029402, "lon": -2.9759792, "tags": {"amenity": "cafe", "name": "81 Renshaw"}}, {"type": "node", "id": 4339461022, "lat": 53.4039405, "lon": -2.9847106, "tags": {"amenity": "cafe", "brand": "Caff\u00e8 Nero", "brand:wikidata": "Q675808", "brand:wikipedia": "en:Caff\u00e8 Nero", "cuisine": "coffee_shop", "name": "Caff\u00e8 Nero", "takeaway": "yes"}}, {"type": "node", "id": 4339461023, "lat": 53.40437, "lon": -2.9811254, "tags": {"addr:city": "Liverpool", "addr:housenumber": "10", "addr:postcode": "L1 4DS", "addr:street": "Bold Street", "amenity": "cafe", "fhrs:id": "1087776", "fhrs:local_authority_id": "PI/000273339", "name": "The Cat Cafe", "old_name": "Cancer Research UK"}}, {"type": "node", "id": 4339464393, "lat": 53.401894, "lon": -2.970012, "tags": {"addr:postcode": "L1 9BP", "amenity": "cafe", "brand": "Costa", "brand:wikidata": "Q608845", "brand:wikipedia": "en:Costa Coffee", "cuisine": "coffee_shop", "name": "Costa", "takeaway": "yes"}}, {"type": "node", "id": 4339704597, "lat": 53.4039543, "lon": -2.9728933, "tags": {"amenity": "cafe", "name": "Pumpernickle's"}}, {"type": "node", "id": 4339704641, "lat": 53.4014412, "lon": -2.9708098, "tags": {"amenity": "cafe", "name": "92 degree"}}, {"type": "node", "id": 4417907625, "lat": 53.4094251, "lon": -2.9741161, "tags": {"addr:housenumber": "88", "addr:postcode": "L3 8JA", "addr:street": "London Road", "amenity": "cafe", "brand": "Costa", "brand:wikidata": "Q608845", "brand:wikipedia": "en:Costa Coffee", "cuisine": "coffee_shop", "fhrs:id": "498283", "name": "Costa", "source:addr": "FHRS Open Data", "takeaway": "yes"}}, {"type": "node", "id": 4417914230, "lat": 53.4082389, "lon": -2.9656327, "tags": {"amenity": "cafe"}}, {"type": "node", "id": 4417914233, "lat": 53.4107138, "lon": -2.9654394, "tags": {"amenity": "cafe", "brand": "Starbucks", "brand:wikidata": "Q37158", "brand:wikipedia": "en:Starbucks", "cuisine": "coffee_shop", "name": "Starbucks", "official_name": "Starbucks Coffee", "takeaway": "yes"}}, {"type": "node", "id": 4417914237, "lat": 53.409179, "lon": -2.9782201, "tags": {"amenity": "cafe"}}, {"type": "node", "id": 4417944968, "lat": 53.4053923, "lon": -2.9662585, "tags": {"amenity": "cafe", "brand": "Starbucks", "brand:wikidata": "Q37158", "brand:wikipedia": "en:Starbucks", "cuisine": "coffee_shop", "name": "Starbucks", "official_name": "Starbucks Coffee", "takeaway": "yes"}}, {"type": "node", "id": 4418055878, "lat": 53.4205435, "lon": -2.9689562}, {"type": "node", "id": 4418056286, "lat": 53.4204203, "lon": -2.9688119}, {"type": "node", "id": 4418056515, "lat": 53.4204859, "lon": -2.9692217}, {"type": "node", "id": 4418056615, "lat": 53.4203565, "lon": -2.9691225}, {"type": "node", "id": 4484185006, "lat": 53.3374801, "lon": -2.8542118, "tags": {"amenity": "cafe", "brand": "Starbucks", "brand:wikidata": "Q37158", "brand:wikipedia": "en:Starbucks", "cuisine": "coffee_shop", "name": "Starbucks", "official_name": "Starbucks Coffee", "takeaway": "yes"}}, {"type": "node", "id": 4501083381, "lat": 53.4031875, "lon": -2.9874924, "tags": {"amenity": "cafe", "brand": "Starbucks", "brand:wikidata": "Q37158", "brand:wikipedia": "en:Starbucks", "cuisine": "coffee_shop", "name": "Starbucks", "official_name": "Starbucks Coffee", "takeaway": "yes", "wheelchair": "yes"}}, {"type": "node", "id": 4501084051, "lat": 53.4076919, "lon": -2.9834154, "tags": {"amenity": "cafe", "brand": "Costa", "brand:wikidata": "Q608845", "brand:wikipedia": "en:Costa Coffee", "cuisine": "coffee_shop", "name": "Costa", "takeaway": "yes"}}, {"type": "node", "id": 4515273802, "lat": 53.4039776, "lon": -2.9803282, "tags": {"addr:city": "Liverpool", "addr:housenumber": "28A", "addr:postcode": "L1 4DS", "addr:street": "Bold Street", "amenity": "cafe", "cuisine": "italian", "fhrs:id": "496126", "fhrs:local_authority_id": "PI/000020123", "name": "Cafe Latino"}}, {"type": "node", "id": 4515387437, "lat": 53.4026866, "lon": -2.9776562, "tags": {"addr:city": "Liverpool", "addr:housenumber": "90", "addr:postcode": "L1 4HY", "addr:street": "Bold Street", "alt_name": "Maggie Mays Cafe Bar", "amenity": "cafe", "fhrs:id": "496081", "fhrs:local_authority_id": "PI/000013843", "name": "Maggie May's"}}, {"type": "node", "id": 4515387446, "lat": 53.4017468, "lon": -2.9797178, "tags": {"amenity": "cafe", "cuisine": "non-alcoholic", "internet_access": "wlan", "name": "Brink", "smoking": "outside"}}, {"type": "node", "id": 4515534443, "lat": 53.3960387, "lon": -2.9793839, "tags": {"amenity": "cafe", "name": "Coffee and Fandisha"}}, {"type": "node", "id": 4518785989, "lat": 53.3668742, "lon": -2.9246985, "tags": {"amenity": "cafe", "name": "Space Coffee"}}, {"type": "node", "id": 4519019822, "lat": 53.4043182, "lon": -2.9832844, "tags": {"amenity": "cafe", "name": "Meeting House Cafe"}}, {"type": "node", "id": 4526605374, "lat": 53.3967552, "lon": -2.9796769, "tags": {"amenity": "cafe", "name": "Siren", "opening_hours": "Mo-Fr 08:30-17:00; Sa,Su 10:00-16:00", "phone": "+44 151 706 8148", "website": "https://sirenliverpool.co.uk/"}}, {"type": "node", "id": 4672357389, "lat": 53.3989823, "lon": -2.9779732, "tags": {"addr:housenumber": "42", "addr:street": "Nelson Street", "amenity": "cafe", "cuisine": "bagel", "internet_access": "wlan", "name": "The Bagelry"}}, {"type": "node", "id": 4709049668, "lat": 53.4059961, "lon": -2.9908851, "tags": {"amenity": "cafe", "brand": "Caff\u00e8 Nero", "brand:wikidata": "Q675808", "brand:wikipedia": "en:Caff\u00e8 Nero", "cuisine": "coffee_shop", "name": "Caff\u00e8 Nero", "takeaway": "yes"}}, {"type": "node", "id": 4758066564, "lat": 53.4045761, "lon": -2.9800508, "tags": {"addr:city": "Liverpool", "addr:housename": "Central Shopping Centre", "addr:street": "Ranelagh Street", "amenity": "cafe", "cuisine": "coffee_shop", "name": "Costa Pronto", "old_name": "Cake Shop Liverpool", "was:shop": "bakery"}}, {"type": "node", "id": 4796770275, "lat": 53.3608768, "lon": -2.8550075, "tags": {"amenity": "cafe"}}, {"type": "node", "id": 4840044416, "lat": 53.389169, "lon": -2.9171438, "tags": {"amenity": "cafe", "name": "Tiger Rock"}}, {"type": "node", "id": 4840045121, "lat": 53.3889761, "lon": -2.9173003, "tags": {"amenity": "cafe", "name": "Portland St 358"}}, {"type": "node", "id": 4865244359, "lat": 53.4188035, "lon": -2.8907345, "tags": {"amenity": "cafe", "name": "Yummy Cafe"}}, {"type": "node", "id": 4890011226, "lat": 53.4064495, "lon": -2.9913176, "tags": {"amenity": "cafe", "name": "Pinch", "name:en": "Pinch"}}, {"type": "node", "id": 4890012524, "lat": 53.4065114, "lon": -2.9913602, "tags": {"amenity": "cafe", "cuisine": "pasta", "name": "Pasta Cosa", "name:en": "Pasta Cosa"}}, {"type": "node", "id": 4968601075, "lat": 53.426834, "lon": -2.8861568}, {"type": "node", "id": 4968601076, "lat": 53.4269633, "lon": -2.8861113}, {"type": "node", "id": 4968601077, "lat": 53.4269311, "lon": -2.8858525}, {"type": "node", "id": 4968601078, "lat": 53.4268716, "lon": -2.8858739}, {"type": "node", "id": 4968601079, "lat": 53.4268869, "lon": -2.8859947}, {"type": "node", "id": 4968601080, "lat": 53.4268166, "lon": -2.8860187}, {"type": "node", "id": 4999872177, "lat": 53.4015641, "lon": -2.9852336, "tags": {"amenity": "cafe", "name": "Cow & Co"}}, {"type": "node", "id": 5002570794, "lat": 53.4121836, "lon": -2.8985347, "tags": {"amenity": "cafe"}}, {"type": "node", "id": 5012654824, "lat": 53.3602273, "lon": -2.8560858, "tags": {"amenity": "cafe", "name": "Metro Sandwich Bar"}}, {"type": "node", "id": 5214540886, "lat": 53.3804525, "lon": -2.9467024, "tags": {"addr:street": "Lark Lane", "amenity": "cafe", "name": "The Tea House"}}, {"type": "node", "id": 5214540887, "lat": 53.380615, "lon": -2.9469855, "tags": {"addr:street": "Little Parkfield Road", "amenity": "cafe", "diet:vegetarian": "yes", "name": "The Third Cafe"}}, {"type": "node", "id": 5370142967, "lat": 53.3486678, "lon": -2.8622221, "tags": {"addr:city": "Liverpool", "addr:housenumber": "3", "addr:postcode": "L24 1XZ", "addr:street": "Longman Drive", "amenity": "cafe", "brand": "Starbucks", "brand:wikidata": "Q37158", "brand:wikipedia": "en:Starbucks", "cuisine": "coffee_shop", "fhrs:id": "766513", "name": "Starbucks", "official_name": "Starbucks Coffee", "source:addr": "FHRS Open Data", "takeaway": "yes"}}, {"type": "node", "id": 5453761825, "lat": 53.4050098, "lon": -2.9804051, "tags": {"amenity": "cafe", "brand": "Starbucks", "brand:wikidata": "Q37158", "brand:wikipedia": "en:Starbucks", "cuisine": "coffee_shop", "name": "Starbucks", "official_name": "Starbucks Coffee", "takeaway": "yes"}}, {"type": "node", "id": 5581906747, "lat": 53.3745666, "lon": -2.8687314, "tags": {"addr:city": "Liverpool", "addr:housenumber": "42", "addr:postcode": "L25 7RG", "addr:street": "Allerton Road", "amenity": "cafe", "name": "One Percent Forest", "opening_hours": "We-Su 09:00-23:00", "website": "https://www.onepercentforest.co.uk/"}}, {"type": "node", "id": 5612684978, "lat": 53.4066542, "lon": -2.983755, "tags": {"amenity": "cafe", "name": "Shiraz Cafe"}}, {"type": "node", "id": 5614789127, "lat": 53.4066409, "lon": -2.9850896, "tags": {"amenity": "cafe", "brand": "Patisserie Valerie", "brand:wikidata": "Q22101966", "brand:wikipedia": "en:Patisserie Valerie", "cuisine": "coffee_shop", "name": "Patisserie Valerie", "takeaway": "yes"}}, {"type": "node", "id": 5614789129, "lat": 53.4054794, "lon": -2.9874656, "tags": {"amenity": "cafe", "name": "Rocco"}}, {"type": "node", "id": 5614802134, "lat": 53.4052415, "lon": -2.98652, "tags": {"amenity": "cafe", "brand": "Caff\u00e8 Nero", "brand:wikidata": "Q675808", "brand:wikipedia": "en:Caff\u00e8 Nero", "cuisine": "coffee_shop", "name": "Caff\u00e8 Nero", "takeaway": "yes"}}, {"type": "node", "id": 5683205311, "lat": 53.4045594, "lon": -2.9872614, "tags": {"addr:housenumber": "3A", "addr:street": "Wall Street", "amenity": "cafe", "cuisine": "bubble_tea", "name": "Mooboo Bubble Tea", "opening_hours": "Mo-Fr 09:30-20:00; Sa 09:00-19:00; Su 11:00-17:00", "source": "https://www.liverpool-one.com/plan-your-visit/map/"}}, {"type": "node", "id": 5696951663, "lat": 53.424696, "lon": -2.9790241}, {"type": "node", "id": 5696951668, "lat": 53.424485, "lon": -2.9791127}, {"type": "node", "id": 5696951680, "lat": 53.4246905, "lon": -2.9791457}, {"type": "node", "id": 5696951710, "lat": 53.4244933, "lon": -2.9789897}, {"type": "node", "id": 5861451933, "lat": 53.4061595, "lon": -2.9893087, "tags": {"amenity": "cafe", "name": "Cook Street Coffee"}}, {"type": "node", "id": 5861452059, "lat": 53.4082071, "lon": -2.9848098, "tags": {"amenity": "cafe", "cuisine": "dessert", "name": "Kaspa's"}}, {"type": "node", "id": 5861452516, "lat": 53.4086988, "lon": -2.9834668, "tags": {"amenity": "cafe", "name": "Roots"}}, {"type": "node", "id": 5863833649, "lat": 53.4084542, "lon": -2.9918333, "tags": {"addr:housename": "Silkhouse Court", "addr:postcode": "L2 2LZ", "addr:street": "Tithebarn Street", "amenity": "cafe", "fhrs:id": "683747", "fixme:addr1": "Unit 1", "name": "Panna", "source:addr": "FHRS Open Data"}}, {"type": "node", "id": 5863833658, "lat": 53.4068006, "lon": -2.9800461, "tags": {"amenity": "cafe", "name": "Key Lime Coffee"}}, {"type": "node", "id": 5863845686, "lat": 53.4080157, "lon": -2.9929404, "tags": {"amenity": "cafe", "name": "Out to Lunch"}}, {"type": "node", "id": 5864978249, "lat": 53.4064744, "lon": -2.9934558, "tags": {"amenity": "cafe", "name": "In A Big Pond"}}, {"type": "node", "id": 5864979728, "lat": 53.408775, "lon": -2.9838385, "tags": {"amenity": "cafe", "name": "Lovelocks", "outdoor_seating": "yes"}}, {"type": "node", "id": 5865641963, "lat": 53.4055107, "lon": -2.9924675, "tags": {"amenity": "cafe", "name": "Philpotts"}}, {"type": "node", "id": 5865641969, "lat": 53.4028109, "lon": -2.9778944, "tags": {"addr:city": "Liverpool", "addr:housenumber": "84A", "addr:postcode": "L1 4HR", "addr:street": "Bold Street", "amenity": "cafe", "fhrs:id": "1059645", "fhrs:local_authority_id": "PI/000265078", "name": "Artisane"}}, {"type": "node", "id": 5865643903, "lat": 53.4030319, "lon": -2.9783581, "tags": {"addr:city": "Liverpool", "addr:housenumber": "74", "addr:postcode": "L1 4HR", "addr:street": "Bold Street", "alt_name": "Organico", "amenity": "cafe", "contact:facebook": "https://www.facebook.com/organicoliverpool", "diet:gluten_free": "yes", "diet:raw": "yes", "diet:vegan": "yes", "diet:vegetarian": "only", "fhrs:id": "948016", "fhrs:local_authority_id": "PI/000270459", "level": "0", "name": "Org\u00e2nico", "old_name": "Koop", "organic": "yes", "start_date": "2020", "toilets": "yes", "toilets:access": "customers"}}, {"type": "node", "id": 5865901576, "lat": 53.4064187, "lon": -2.9802536, "tags": {"amenity": "cafe", "name": "Mangobean"}}, {"type": "node", "id": 5871150256, "lat": 53.4071223, "lon": -2.9906113, "tags": {"amenity": "cafe", "name": "Moose Coffee"}}, {"type": "node", "id": 5871157569, "lat": 53.4063357, "lon": -2.9940975, "tags": {"amenity": "cafe", "name": "Bite"}}, {"type": "node", "id": 5871157571, "lat": 53.4062026, "lon": -2.9941677, "tags": {"amenity": "cafe", "name": "Cafe Lucaya"}}, {"type": "node", "id": 5871157573, "lat": 53.4077351, "lon": -2.9916146, "tags": {"amenity": "cafe", "name": "Philpotts"}}, {"type": "node", "id": 5871157991, "lat": 53.4074694, "lon": -2.9906063, "tags": {"amenity": "cafe", "name": "Lucy in the Sky"}}, {"type": "node", "id": 6146516194, "lat": 53.4567072, "lon": -2.9176117}, {"type": "node", "id": 6146516195, "lat": 53.4566644, "lon": -2.9175121}, {"type": "node", "id": 6146516196, "lat": 53.456516, "lon": -2.9176923}, {"type": "node", "id": 6146516197, "lat": 53.4565589, "lon": -2.9177918}, {"type": "node", "id": 6240591151, "lat": 53.4027937, "lon": -2.9899326, "tags": {"amenity": "cafe", "level": "0", "name": "Heavenly Desserts"}}, {"type": "node", "id": 6245133469, "lat": 53.4039608, "lon": -2.9869291, "tags": {"amenity": "cafe", "cuisine": "milkshake", "name": "Sblended"}}, {"type": "node", "id": 6299223387, "lat": 53.4098103, "lon": -2.980823, "tags": {"amenity": "cafe", "name": "Deli Marche", "wheelchair": "yes"}}, {"type": "node", "id": 6299223388, "lat": 53.4100774, "lon": -2.979641, "tags": {"amenity": "cafe", "name": "Art Gallery Cafe"}}, {"type": "node", "id": 6331369614, "lat": 53.3852923, "lon": -2.964917, "tags": {"amenity": "cafe", "name": "Tesco Cafe"}}, {"type": "node", "id": 6776345185, "lat": 53.4008093, "lon": -2.9706641, "tags": {"addr:postcode": "L1 9BW", "addr:street": "Hope Street", "amenity": "cafe", "name": "Moose Coffee", "website": "http://moose coffee.co"}}, {"type": "node", "id": 6841770972, "lat": 53.3915498, "lon": -2.8722274, "tags": {"amenity": "cafe", "brand": "Costa", "brand:wikidata": "Q608845", "brand:wikipedia": "en:Costa Coffee", "cuisine": "coffee_shop", "name": "Costa", "takeaway": "yes"}}, {"type": "node", "id": 6985729624, "lat": 53.4294089, "lon": -2.9603388, "tags": {"addr:city": "Liverpool", "addr:housenumber": "197", "addr:postcode": "L4 0UF", "addr:street": "Oakfield Road", "amenity": "cafe", "name": "Homebaked", "note": "community bakery, pies, rolls etc", "url": "http://homebaked.org.uk/"}}, {"type": "node", "id": 7498836308, "lat": 53.3931979, "lon": -2.9360958, "tags": {"addr:city": "Liverpool", "addr:country": "GB", "addr:housenumber": "126", "addr:postcode": "L15 3JR", "addr:street": "Smithdown Road", "amenity": "cafe", "brand": "Asda", "brand:wikidata": "Q297410", "brand:wikipedia": "en:Asda", "contact:phone": "+44 151 734 6600", "contact:website": "https://storelocator.asda.com/north-west/liverpool/126-smithdown-road/cafe", "drinking_water:refill": "yes", "drinking_water:refill:network": "Refill", "fhrs:id": "1244311", "fixme": "Location not accurate", "internet_access": "wlan", "internet_access:fee": "no", "opening_hours:covid19": "Mo-Su off", "operator": "Asda Stores Ltd"}}, {"type": "node", "id": 7625403846, "lat": 53.3496323, "lon": -2.8592402, "tags": {"addr:city": "Liverpool", "addr:housenumber": "25", "addr:parentstreet": "Speke Boulevard", "addr:postcode": "L24 9HZ", "addr:street": "Boulevard Retail Park", "amenity": "cafe", "brand": "Costa", "brand:wikidata": "Q608845", "brand:wikipedia": "en:Costa Coffee", "cuisine": "coffee_shop", "drive_through": "yes", "fhrs:id": "1262318", "fixme": "Location not accurate", "name": "Costa", "source:addr": "FHRS Open Data", "takeaway": "yes"}}, {"type": "node", "id": 7968927147, "lat": 53.4125806, "lon": -2.980809, "tags": {"amenity": "cafe", "name": "Social Zone Cafe"}}, {"type": "node", "id": 7973651983, "lat": 53.4050554, "lon": -2.9726028, "tags": {"amenity": "cafe", "brand": "Starbucks", "brand:wikidata": "Q37158", "brand:wikipedia": "en:Starbucks", "cuisine": "coffee_shop", "name": "Starbucks", "official_name": "Starbucks Coffee", "takeaway": "yes"}}, {"type": "node", "id": 7986028233, "lat": 53.4232697, "lon": -2.9790066, "tags": {"amenity": "cafe", "name": "Sainsbury's Cafe"}}, {"type": "node", "id": 8021691347, "lat": 53.4245926, "lon": -2.9790066}, {"type": "node", "id": 8064182964, "lat": 53.4121139, "lon": -2.9812432, "tags": {"amenity": "cafe", "brand": "Starbucks", "brand:wikidata": "Q37158", "brand:wikipedia": "en:Starbucks", "cuisine": "coffee_shop", "name": "Starbucks - Byrom Street", "official_name": "Starbucks Coffee", "outdoor_seating": "no", "takeaway": "yes"}}, {"type": "node", "id": 8230880254, "lat": 53.4103289, "lon": -2.9203141, "tags": {"amenity": "cafe", "brand": "Starbucks", "brand:wikidata": "Q37158", "brand:wikipedia": "en:Starbucks", "cuisine": "coffee_shop", "drive_through": "yes", "name": "Starbucks", "official_name": "Starbucks Coffee", "takeaway": "yes"}}, {"type": "node", "id": 8720780119, "lat": 53.4027278, "lon": -2.979666, "tags": {"addr:city": "Liverpool", "addr:housenumber": "18", "addr:postcode": "L1 4BS", "addr:street": "Slater Street", "amenity": "cafe", "cuisine": "coffee_shop", "diet:vegan": "only", "diet:vegetarian": "only", "fhrs:id": "1339503", "fhrs:local_authority_id": "79416", "name": "Potts Coffee"}}, {"type": "node", "id": 8721613879, "lat": 53.4025491, "lon": -2.9774359, "tags": {"addr:city": "Liverpool", "addr:housenumber": "96", "addr:postcode": "L1 4HY", "addr:street": "Bold Street", "amenity": "cafe", "fhrs:id": "1244410", "fhrs:local_authority_id": "PI/000269572", "name": "Next to Nowhere Cafe"}}, {"type": "node", "id": 8771739289, "lat": 53.4058524, "lon": -2.9644327, "tags": {"addr:city": "Liverpool", "addr:housename": "Liverpool University Blackwell's", "addr:street": "Peach Street", "amenity": "cafe", "brand": "Caff\u00e8 Nero", "brand:wikidata": "Q675808", "brand:wikipedia": "en:Caff\u00e8 Nero", "cuisine": "coffee_shop", "name": "Caff\u00e8 Nero", "outdoor_seating": "yes", "takeaway": "yes"}}, {"type": "node", "id": 8771890758, "lat": 53.4060121, "lon": -2.9646705, "tags": {"amenity": "cafe", "cuisine": "bubble_tea"}}, {"type": "node", "id": 8792415138, "lat": 53.3807865, "lon": -2.9465443, "tags": {"amenity": "cafe", "name": "Frieda Mo's"}}, {"type": "node", "id": 8834924248, "lat": 53.3541529, "lon": -2.8917014, "tags": {"addr:city": "Liverpool", "addr:housename": "Dunelm", "addr:postcode": "L19 5NY", "addr:street": "Horrocks Avenue", "amenity": "cafe", "fhrs:id": "634280", "source:addr": "FHRS Open Data"}}, {"type": "way", "id": 119153899, "nodes": [1339584976, 1339584977, 1339584974, 1339584963, 1339584976], "tags": {"amenity": "cafe", "building": "kiosk", "name": "Boathouse Kiosk", "opening_hours": "Mo-Sa 10:00-18:30"}}, {"type": "way", "id": 221893861, "nodes": [2308757886, 2308757924, 2308757909, 824750897, 2308757886], "tags": {"amenity": "cafe", "building": "yes", "historic:amenity": "bank", "name": "Wake & Cate", "old_name": "Santander"}}, {"type": "way", "id": 221893865, "nodes": [2308757874, 2308757912, 2308757898, 2308757880, 2308757874], "tags": {"amenity": "cafe", "building": "yes", "name": "Bramleys"}}, {"type": "way", "id": 221895774, "nodes": [348177688, 2308773503, 2188552607, 2188552593, 2188552609, 2188552610, 2188552584, 2188552573, 2188552613, 348177688], "tags": {"addr:city": "Liverpool", "addr:housenumber": "44", "addr:postcode": "L2 1TD", "addr:street": "Lord Street", "amenity": "cafe", "brand": "Costa", "brand:wikidata": "Q608845", "brand:wikipedia": "en:Costa Coffee", "building": "yes", "cuisine": "coffee_shop", "name": "Costa", "source": "survey", "takeaway": "yes"}}, {"type": "way", "id": 269150187, "nodes": [2744443563, 2744443560, 2744443580, 2744443626, 2744443628, 2744443563], "tags": {"addr:street": "Upper Pownall Street", "amenity": "cafe", "building": "yes", "level": "0", "name": "Sugar And Dice", "opening_hours": "Th-Tu 12:00-22:00", "payment:cash": "yes", "payment:coins": "yes", "payment:notes": "yes", "payment:visa_debit": "yes", "smoking": "no", "toilets:wheelchair": "yes", "website": "http://sugaranddice.co.uk/", "wheelchair": "yes"}}, {"type": "way", "id": 356035736, "nodes": [3615169895, 3615169903, 3615169956, 3615169947, 3615169895], "tags": {"addr:city": "Liverpool", "addr:housenumber": "178", "addr:postcode": "L17 9PE", "addr:street": "Aigburth Road", "amenity": "cafe", "building": "yes", "name": "Zorba Cafe"}}, {"type": "way", "id": 392870181, "nodes": [3960629823, 3960629824, 3960629825, 3960629826, 3960629827, 3960629828, 3960629829, 3960629830, 3960629831, 3960629832, 3960629833, 3960629834, 3960629835, 3960629836, 3960629837, 3960629823], "tags": {"amenity": "cafe", "building": "yes", "name": "Aviary Cafe"}}, {"type": "way", "id": 444319175, "nodes": [4418055878, 4418056515, 4418056615, 4418056286, 4418055878], "tags": {"amenity": "cafe", "building": "yes", "name": "May Duncans"}}, {"type": "way", "id": 507335402, "nodes": [4968601075, 4968601076, 4968601077, 4968601078, 4968601079, 4968601080, 4968601075], "tags": {"addr:city": "Liverpool", "addr:postcode": "L12 9HN", "addr:street": "Yew Tree Lane", "amenity": "cafe", "building": "yes", "cuisine": "coffee_shop;sandwich", "name": "Maggie May's Community Cafe", "outdoor_seating": "yes", "source": "OS OpenMap Local;local knowledge"}}, {"type": "way", "id": 598589230, "nodes": [5696951663, 5696951680, 5696951668, 5696951710, 8021691347, 5696951663], "tags": {"amenity": "cafe", "brand": "Costa", "brand:wikidata": "Q608845", "brand:wikipedia": "en:Costa Coffee", "building": "yes", "cuisine": "coffee_shop", "name": "Costa", "source": "Bing", "takeaway": "yes"}}, {"type": "way", "id": 656103674, "nodes": [6146516197, 6146516196, 6146516195, 6146516194, 6146516197], "tags": {"amenity": "cafe", "brand": "Starbucks", "brand:wikidata": "Q37158", "brand:wikipedia": "en:Starbucks", "building": "yes", "cuisine": "coffee_shop", "name": "Starbucks", "official_name": "Starbucks Coffee", "operator": "Starbucks", "takeaway": "yes"}}]}